{"type": "FeatureCollection", "features": [ {"type": "Feature", "properties": {"norad_id": 39634, "name": "SENTINEL-1A", "group": "resource", "lat": 33.96561384572539, "lon": -8.731580655380837, "alt_km": 692.9950811484377, "timestamp": "2025-12-17T15:50:09.433885+00:00", "meta": {"OBJECT_NAME": "SENTINEL-1A", "OBJECT_ID": "2014-016A", "EPOCH": "2025-12-17T07:27:01.591776", "MEAN_MOTION": 14.59200899, "ECCENTRICITY": 0.00012324, "INCLINATION": 98.1802, "RA_OF_ASC_NODE": 356.4848, "ARG_OF_PERICENTER": 82.5107, "MEAN_ANOMALY": 277.6233, "EPHEMERIS_TYPE": 0, "CLASSIFICATION_TYPE": "U", "NORAD_CAT_ID": 39634, "ELEMENT_SET_NO": 999, "REV_AT_EPOCH": 62349, "BSTAR": 3.5855515e-05, "MEAN_MOTION_DOT": 1.23e-06, "MEAN_MOTION_DDOT": 0}, "tle": {"line1": "1 39634U 14016A   25351.31043509  .00000123  00000+0  35856-4 0  9994", "line2": "2 39634  98.1802 356.4848 0001232  82.5107 277.6233 14.59200899623495"}}, "geometry": {"type": "Point", "coordinates": [-8.731580655380837, 33.96561384572539]}}, {"type": "Feature", "properties": {"norad_id": 39731, "name": "KAZEOSAT 1", "group": "resource", "lat": 64.57853582933305, "lon": 45.47242122974851, "alt_km": 744.6575729104734, "timestamp": "2025-12-17T15:50:09.433895+00:00", "meta": {"OBJECT_NAME": "KAZEOSAT 1", "OBJECT_ID": "2014-024A", "EPOCH": "2025-12-17T07:12:18.912096", "MEAN_MOTION": 14.42065553, "ECCENTRICITY": 0.00011398, "INCLINATION": 98.3433, "RA_OF_ASC_NODE": 63.1054, "ARG_OF_PERICENTER": 96.4299, "MEAN_ANOMALY": 263.7021, "EPHEMERIS_TYPE": 0, "CLASSIFICATION_TYPE": "U", "NORAD_CAT_ID": 39731, "ELEMENT_SET_NO": 999, "REV_AT_EPOCH": 61234, "BSTAR": 8.1123159e-05, "MEAN_MOTION_DOT": 2.24e-06, "MEAN_MOTION_DDOT": 0}, "tle": {"line1": "1 39731U 14024A   25351.30021889  .00000224  00000+0  81123-4 0  9997", "line2": "2 39731  98.3433  63.1054 0001139  96.4299 263.7021 14.42065553612349"}}, "geometry": {"type": "Point", "coordinates": [45.47242122974851, 64.57853582933305]}}, {"type": "Feature", "properties": {"norad_id": 39766, "name": "ALOS-2", "group": "resource", "lat": -69.93629591404637, "lon": -115.97716624925287, "alt_km": 639.1299710505191, "timestamp": "2025-12-17T15:50:09.433905+00:00", "meta": {"OBJECT_NAME": "ALOS-2", "OBJECT_ID": "2014-029A", "EPOCH": "2025-12-17T06:35:12.570720", "MEAN_MOTION": 14.79471004, "ECCENTRICITY": 0.00013317, "INCLINATION": 97.9224, "RA_OF_ASC_NODE": 86.0558, "ARG_OF_PERICENTER": 96.3376, "MEAN_ANOMALY": 263.7988, "EPHEMERIS_TYPE": 0, "CLASSIFICATION_TYPE": "U", "NORAD_CAT_ID": 39766, "ELEMENT_SET_NO": 999, "REV_AT_EPOCH": 62468, "BSTAR": 0.00013839671, "MEAN_MOTION_DOT": 9.82e-06, "MEAN_MOTION_DDOT": 0}, "tle": {"line1": "1 39766U 14029A   25351.27445105  .00000982  00000+0  13840-3 0  9998", "line2": "2 39766  97.9224  86.0558 0001331  96.3376 263.7988 14.79471004624686"}}, "geometry": {"type": "Point", "coordinates": [-115.97716624925287, -69.93629591404637]}}, {"type": "Feature", "properties": {"norad_id": 40010, "name": "KAZEOSAT 2", "group": "resource", "lat": -79.35108263045107, "lon": -29.14366402407927, "alt_km": 618.7541813842563, "timestamp": "2025-12-17T15:50:09.433915+00:00", "meta": {"OBJECT_NAME": "KAZEOSAT 2", "OBJECT_ID": "2014-033A", "EPOCH": "2025-12-17T06:34:23.314080", "MEAN_MOTION": 14.85177135, "ECCENTRICITY": 0.00079875, "INCLINATION": 97.5505, "RA_OF_ASC_NODE": 195.3538, "ARG_OF_PERICENTER": 190.6606, "MEAN_ANOMALY": 169.4441, "EPHEMERIS_TYPE": 0, "CLASSIFICATION_TYPE": "U", "NORAD_CAT_ID": 40010, "ELEMENT_SET_NO": 999, "REV_AT_EPOCH": 62195, "BSTAR": 0.00012170671, "MEAN_MOTION_DOT": 9.93e-06, "MEAN_MOTION_DDOT": 0}, "tle": {"line1": "1 40010U 14033A   25351.27388095  .00000993  00000+0  12171-3 0  9999", "line2": "2 40010  97.5505 195.3538 0007987 190.6606 169.4441 14.85177135621955"}}, "geometry": {"type": "Point", "coordinates": [-29.14366402407927, -79.35108263045107]}}, {"type": "Feature", "properties": {"norad_id": 40011, "name": "HODOYOSHI-4", "group": "resource", "lat": 30.626070352804227, "lon": 175.80238568182045, "alt_km": 618.7453800334988, "timestamp": "2025-12-17T15:50:09.433926+00:00", "meta": {"OBJECT_NAME": "HODOYOSHI-4", "OBJECT_ID": "2014-033B", "EPOCH": "2025-12-17T07:37:28.160256", "MEAN_MOTION": 14.8749663, "ECCENTRICITY": 0.00234335, "INCLINATION": 97.5413, "RA_OF_ASC_NODE": 179.9754, "ARG_OF_PERICENTER": 185.1189, "MEAN_ANOMALY": 174.9792, "EPHEMERIS_TYPE": 0, "CLASSIFICATION_TYPE": "U", "NORAD_CAT_ID": 40011, "ELEMENT_SET_NO": 999, "REV_AT_EPOCH": 62176, "BSTAR": 7.3248078e-05, "MEAN_MOTION_DOT": 6.15e-06, "MEAN_MOTION_DDOT": 0}, "tle": {"line1": "1 40011U 14033B   25351.31768704  .00000615  00000+0  73248-4 0  9998", "line2": "2 40011  97.5413 179.9754 0023433 185.1189 174.9792 14.87496630621766"}}, "geometry": {"type": "Point", "coordinates": [175.80238568182045, 30.626070352804227]}}, {"type": "Feature", "properties": {"norad_id": 40013, "name": "DEIMOS-2", "group": "resource", "lat": -72.78205715645825, "lon": -107.15800537913583, "alt_km": 596.6947368555393, "timestamp": "2025-12-17T15:50:09.433936+00:00", "meta": {"OBJECT_NAME": "DEIMOS-2", "OBJECT_ID": "2014-033D", "EPOCH": "2025-12-17T06:31:05.711232", "MEAN_MOTION": 14.92990616, "ECCENTRICITY": 0.00010974, "INCLINATION": 97.6064, "RA_OF_ASC_NODE": 226.9216, "ARG_OF_PERICENTER": 108.5412, "MEAN_ANOMALY": 251.5928, "EPHEMERIS_TYPE": 0, "CLASSIFICATION_TYPE": "U", "NORAD_CAT_ID": 40013, "ELEMENT_SET_NO": 999, "REV_AT_EPOCH": 61057, "BSTAR": 0.00016495128, "MEAN_MOTION_DOT": 1.66e-05, "MEAN_MOTION_DDOT": 0}, "tle": {"line1": "1 40013U 14033D   25351.27159388  .00001660  00000+0  16495-3 0  9998", "line2": "2 40013  97.6064 226.9216 0001097 108.5412 251.5928 14.92990616610576"}}, "geometry": {"type": "Point", "coordinates": [-107.15800537913583, -72.78205715645825]}}, {"type": "Feature", "properties": {"norad_id": 40015, "name": "HODOYOSHI-3", "group": "resource", "lat": -82.35619450619087, "lon": -108.70686812810743, "alt_km": 603.8772663882373, "timestamp": "2025-12-17T15:50:09.433946+00:00", "meta": {"OBJECT_NAME": "HODOYOSHI-3", "OBJECT_ID": "2014-033F", "EPOCH": "2025-12-17T08:09:22.329792", "MEAN_MOTION": 14.84822615, "ECCENTRICITY": 0.00320717, "INCLINATION": 97.6202, "RA_OF_ASC_NODE": 156.9749, "ARG_OF_PERICENTER": 232.2131, "MEAN_ANOMALY": 127.6179, "EPHEMERIS_TYPE": 0, "CLASSIFICATION_TYPE": "U", "NORAD_CAT_ID": 40015, "ELEMENT_SET_NO": 999, "REV_AT_EPOCH": 62063, "BSTAR": 0.00017733416, "MEAN_MOTION_DOT": 1.467e-05, "MEAN_MOTION_DDOT": 0}, "tle": {"line1": "1 40015U 14033F   25351.33984178  .00001467  00000+0  17733-3 0  9991", "line2": "2 40015  97.6202 156.9749 0032071 232.2131 127.6179 14.84822615620637"}}, "geometry": {"type": "Point", "coordinates": [-108.70686812810743, -82.35619450619087]}}, {"type": "Feature", "properties": {"norad_id": 40053, "name": "SPOT 7", "group": "resource", "lat": -71.900994850406, "lon": 79.42218280279073, "alt_km": 699.0829647917599, "timestamp": "2025-12-17T15:50:09.433957+00:00", "meta": {"OBJECT_NAME": "SPOT 7", "OBJECT_ID": "2014-034A", "EPOCH": "2025-12-17T07:57:11.875680", "MEAN_MOTION": 14.60739789, "ECCENTRICITY": 0.00015386, "INCLINATION": 98.0906, "RA_OF_ASC_NODE": 53.3012, "ARG_OF_PERICENTER": 84.6789, "MEAN_ANOMALY": 275.4587, "EPHEMERIS_TYPE": 0, "CLASSIFICATION_TYPE": "U", "NORAD_CAT_ID": 40053, "ELEMENT_SET_NO": 999, "REV_AT_EPOCH": 61058, "BSTAR": 9.0168867e-05, "MEAN_MOTION_DOT": 3.94e-06, "MEAN_MOTION_DDOT": 0}, "tle": {"line1": "1 40053U 14034A   25351.33138745  .00000394  00000+0  90169-4 0  9998", "line2": "2 40053  98.0906  53.3012 0001538  84.6789 275.4587 14.60739789610581"}}, "geometry": {"type": "Point", "coordinates": [79.42218280279073, -71.900994850406]}}, {"type": "Feature", "properties": {"norad_id": 40072, "name": "SKYSAT-B", "group": "resource", "lat": -27.932533217859866, "lon": -59.901712320484464, "alt_km": 616.3875174444684, "timestamp": "2025-12-17T15:50:09.433967+00:00", "meta": {"OBJECT_NAME": "SKYSAT-B", "OBJECT_ID": "2014-037D", "EPOCH": "2025-12-17T07:53:23.701920", "MEAN_MOTION": 14.87343968, "ECCENTRICITY": 0.00064355, "INCLINATION": 98.3616, "RA_OF_ASC_NODE": 295.2771, "ARG_OF_PERICENTER": 136.9022, "MEAN_ANOMALY": 223.2697, "EPHEMERIS_TYPE": 0, "CLASSIFICATION_TYPE": "U", "NORAD_CAT_ID": 40072, "ELEMENT_SET_NO": 999, "REV_AT_EPOCH": 61892, "BSTAR": 0.00017376001, "MEAN_MOTION_DOT": 1.509e-05, "MEAN_MOTION_DDOT": 0}, "tle": {"line1": "1 40072U 14037D   25351.32874655  .00001509  00000+0  17376-3 0  9995", "line2": "2 40072  98.3616 295.2771 0006435 136.9022 223.2697 14.87343968618922"}}, "geometry": {"type": "Point", "coordinates": [-59.901712320484464, -27.932533217859866]}}, {"type": "Feature", "properties": {"norad_id": 40115, "name": "WORLDVIEW-3 (WV-3)", "group": "resource", "lat": -10.315776604559362, "lon": -117.56287953656644, "alt_km": 612.8717296791992, "timestamp": "2025-12-17T15:50:09.433977+00:00", "meta": {"OBJECT_NAME": "WORLDVIEW-3 (WV-3)", "OBJECT_ID": "2014-048A", "EPOCH": "2025-12-17T06:53:57.177312", "MEAN_MOTION": 14.85523011, "ECCENTRICITY": 0.00051298, "INCLINATION": 97.8612, "RA_OF_ASC_NODE": 63.5105, "ARG_OF_PERICENTER": 170.1438, "MEAN_ANOMALY": 189.9878, "EPHEMERIS_TYPE": 0, "CLASSIFICATION_TYPE": "U", "NORAD_CAT_ID": 40115, "ELEMENT_SET_NO": 999, "REV_AT_EPOCH": 61491, "BSTAR": 0.00011844001, "MEAN_MOTION_DOT": 9.69e-06, "MEAN_MOTION_DDOT": 0}, "tle": {"line1": "1 40115U 14048A   25351.28746733  .00000969  00000+0  11844-3 0  9998", "line2": "2 40115  97.8612  63.5105 0005129 170.1438 189.9878 14.85523011614918"}}, "geometry": {"type": "Point", "coordinates": [-117.56287953656644, -10.315776604559362]}}]}